STARLINK-35429          
1 66590U 25270C   25349.89086319  .00058988  00000+0  10034-2 0  9996
2 66590  42.9987 174.3053 0001714 273.6087  86.4577 15.50589182  4944
STARLINK-36058          
1 66591U 25270D   25349.89015774  .00086651  00000+0  14668-2 0  9999
2 66591  42.9984 174.2990 0002727 277.7075  82.3476 15.50572022  4834
STARLINK-36066          
1 66592U 25270E   25349.91668981  .00068052  00000+0  16240-2 0  9990
2 66592  42.9995 174.3515 0001699 265.4870 158.4410 15.40660232  4816
STARLINK-36031          
1 66593U 25270F   25349.56807208  .00041265  00000+0  74785-3 0  9995
2 66593  42.9987 176.1834 0002240 337.1851  22.8909 15.48926076  4783
STARLINK-36032          
1 66594U 25270G   25349.88914797  .00082985  00000+0  14040-2 0  9994
2 66594  42.9986 174.2915 0001678 271.4939  88.5729 15.50606409  4645
STARLINK-35711          
1 66595U 25270H   25349.88880579  .00076006  00000+0  12879-2 0  9990
2 66595  42.9989 174.2876 0001571 262.9303  97.1378 15.50599835  4940
STARLINK-35811          
1 66596U 25270J   25349.91668981  .00075325  00000+0  17944-2 0  9997
2 66596  42.9996 174.4118 0002080 274.5973 124.4379 15.40670125  5013
STARLINK-35820          
1 66597U 25270K   25349.91668981  .00083262  00000+0  19807-2 0  9997
2 66597  42.9997 174.2909 0001803 274.5212 174.2690 15.40670042  5016
STARLINK-35981          
1 66598U 25270L   25349.24363419  .00084665  00000+0  14334-2 0  9990
2 66598  42.9990 178.0473 0001518 290.6463  69.4235 15.50578636  4575
STARLINK-35930          
1 66599U 25270M   25349.88743554  .00068486  00000+0  11626-2 0  9997
2 66599  42.9985 174.2775 0000650 263.4139  96.6648 15.50589612  4832
STARLINK-35980          
1 66600U 25270N   25349.88708797  .00067517  00000+0  11463-2 0  9993
2 66600  42.9988 174.2745 0002810 279.8877  80.1666 15.50588266  4736
STARLINK-35978          
1 66601U 25270P   25349.91668981  .00085910  00000+0  20462-2 0  9994
2 66601  42.9991 174.1995 0001423 250.9063 235.2358 15.40619116  4754
