CCSDS_OMM_VERS = 2.0
CREATION_DATE  = 
ORIGINATOR     = 

OBJECT_NAME    = STARLINK-35429
OBJECT_ID      = 2025-270C
CENTER_NAME    = EARTH
REF_FRAME      = TEME
TIME_SYSTEM    = UTC
MEAN_ELEMENT_THEORY = SGP/SGP4

EPOCH          = 2025-12-15T21:22:50.579616
MEAN_MOTION    = 15.50589182
ECCENTRICITY   = .0001714
INCLINATION    = 42.9987
RA_OF_ASC_NODE = 174.3053
ARG_OF_PERICENTER = 273.6087
MEAN_ANOMALY   = 86.4577

EPHEMERIS_TYPE = 0
CLASSIFICATION_TYPE = U
NORAD_CAT_ID   = 66590
ELEMENT_SET_NO = 999
REV_AT_EPOCH   = 494
BSTAR          = .1003369E-2
MEAN_MOTION_DOT = .58988E-3
MEAN_MOTION_DDOT = 0

CCSDS_OMM_VERS = 2.0
CREATION_DATE  = 
ORIGINATOR     = 

OBJECT_NAME    = STARLINK-36058
OBJECT_ID      = 2025-270D
CENTER_NAME    = EARTH
REF_FRAME      = TEME
TIME_SYSTEM    = UTC
MEAN_ELEMENT_THEORY = SGP/SGP4

EPOCH          = 2025-12-15T21:21:49.628736
MEAN_MOTION    = 15.50572022
ECCENTRICITY   = .00027275
INCLINATION    = 42.9984
RA_OF_ASC_NODE = 174.2990
ARG_OF_PERICENTER = 277.7075
MEAN_ANOMALY   = 82.3476

EPHEMERIS_TYPE = 0
CLASSIFICATION_TYPE = U
NORAD_CAT_ID   = 66591
ELEMENT_SET_NO = 999
REV_AT_EPOCH   = 483
BSTAR          = .14667989E-2
MEAN_MOTION_DOT = .86651E-3
MEAN_MOTION_DDOT = 0

CCSDS_OMM_VERS = 2.0
CREATION_DATE  = 
ORIGINATOR     = 

OBJECT_NAME    = STARLINK-36066
OBJECT_ID      = 2025-270E
CENTER_NAME    = EARTH
REF_FRAME      = TEME
TIME_SYSTEM    = UTC
MEAN_ELEMENT_THEORY = SGP/SGP4

EPOCH          = 2025-12-15T22:00:01.999584
MEAN_MOTION    = 15.40660232
ECCENTRICITY   = .00016997
INCLINATION    = 42.9995
RA_OF_ASC_NODE = 174.3515
ARG_OF_PERICENTER = 265.4870
MEAN_ANOMALY   = 158.4410

EPHEMERIS_TYPE = 0
CLASSIFICATION_TYPE = U
NORAD_CAT_ID   = 66592
ELEMENT_SET_NO = 999
REV_AT_EPOCH   = 481
BSTAR          = .1623984E-2
MEAN_MOTION_DOT = .68052E-3
MEAN_MOTION_DDOT = 0

CCSDS_OMM_VERS = 2.0
CREATION_DATE  = 
ORIGINATOR     = 

OBJECT_NAME    = STARLINK-36031
OBJECT_ID      = 2025-270F
CENTER_NAME    = EARTH
REF_FRAME      = TEME
TIME_SYSTEM    = UTC
MEAN_ELEMENT_THEORY = SGP/SGP4

EPOCH          = 2025-12-15T13:38:01.427712
MEAN_MOTION    = 15.48926076
ECCENTRICITY   = .00022408
INCLINATION    = 42.9987
RA_OF_ASC_NODE = 176.1834
ARG_OF_PERICENTER = 337.1851
MEAN_ANOMALY   = 22.8909

EPHEMERIS_TYPE = 0
CLASSIFICATION_TYPE = U
NORAD_CAT_ID   = 66593
ELEMENT_SET_NO = 999
REV_AT_EPOCH   = 478
BSTAR          = .74784737E-3
MEAN_MOTION_DOT = .41265E-3
MEAN_MOTION_DDOT = 0

CCSDS_OMM_VERS = 2.0
CREATION_DATE  = 
ORIGINATOR     = 

OBJECT_NAME    = STARLINK-36032
OBJECT_ID      = 2025-270G
CENTER_NAME    = EARTH
REF_FRAME      = TEME
TIME_SYSTEM    = UTC
MEAN_ELEMENT_THEORY = SGP/SGP4

EPOCH          = 2025-12-15T21:20:22.384608
MEAN_MOTION    = 15.50606409
ECCENTRICITY   = .00016785
INCLINATION    = 42.9986
RA_OF_ASC_NODE = 174.2915
ARG_OF_PERICENTER = 271.4939
MEAN_ANOMALY   = 88.5729

EPHEMERIS_TYPE = 0
CLASSIFICATION_TYPE = U
NORAD_CAT_ID   = 66594
ELEMENT_SET_NO = 999
REV_AT_EPOCH   = 464
BSTAR          = .1404017E-2
MEAN_MOTION_DOT = .82985E-3
MEAN_MOTION_DDOT = 0

CCSDS_OMM_VERS = 2.0
CREATION_DATE  = 
ORIGINATOR     = 

OBJECT_NAME    = STARLINK-35711
OBJECT_ID      = 2025-270H
CENTER_NAME    = EARTH
REF_FRAME      = TEME
TIME_SYSTEM    = UTC
MEAN_ELEMENT_THEORY = SGP/SGP4

EPOCH          = 2025-12-15T21:19:52.820256
MEAN_MOTION    = 15.50599835
ECCENTRICITY   = .00015719
INCLINATION    = 42.9989
RA_OF_ASC_NODE = 174.2876
ARG_OF_PERICENTER = 262.9303
MEAN_ANOMALY   = 97.1378

EPHEMERIS_TYPE = 0
CLASSIFICATION_TYPE = U
NORAD_CAT_ID   = 66595
ELEMENT_SET_NO = 999
REV_AT_EPOCH   = 494
BSTAR          = .12878764E-2
MEAN_MOTION_DOT = .76006E-3
MEAN_MOTION_DDOT = 0

CCSDS_OMM_VERS = 2.0
CREATION_DATE  = 
ORIGINATOR     = 

OBJECT_NAME    = STARLINK-35811
OBJECT_ID      = 2025-270J
CENTER_NAME    = EARTH
REF_FRAME      = TEME
TIME_SYSTEM    = UTC
MEAN_ELEMENT_THEORY = SGP/SGP4

EPOCH          = 2025-12-15T22:00:01.999584
MEAN_MOTION    = 15.40670125
ECCENTRICITY   = .00020808
INCLINATION    = 42.9996
RA_OF_ASC_NODE = 174.4118
ARG_OF_PERICENTER = 274.5973
MEAN_ANOMALY   = 124.4379

EPHEMERIS_TYPE = 0
CLASSIFICATION_TYPE = U
NORAD_CAT_ID   = 66596
ELEMENT_SET_NO = 999
REV_AT_EPOCH   = 501
BSTAR          = .17944433E-2
MEAN_MOTION_DOT = .75325E-3
MEAN_MOTION_DDOT = 0

CCSDS_OMM_VERS = 2.0
CREATION_DATE  = 
ORIGINATOR     = 

OBJECT_NAME    = STARLINK-35820
OBJECT_ID      = 2025-270K
CENTER_NAME    = EARTH
REF_FRAME      = TEME
TIME_SYSTEM    = UTC
MEAN_ELEMENT_THEORY = SGP/SGP4

EPOCH          = 2025-12-15T22:00:01.999584
MEAN_MOTION    = 15.40670042
ECCENTRICITY   = .0001803
INCLINATION    = 42.9997
RA_OF_ASC_NODE = 174.2909
ARG_OF_PERICENTER = 274.5212
MEAN_ANOMALY   = 174.2690

EPHEMERIS_TYPE = 0
CLASSIFICATION_TYPE = U
NORAD_CAT_ID   = 66597
ELEMENT_SET_NO = 999
REV_AT_EPOCH   = 501
BSTAR          = .19807215E-2
MEAN_MOTION_DOT = .83262E-3
MEAN_MOTION_DDOT = 0

CCSDS_OMM_VERS = 2.0
CREATION_DATE  = 
ORIGINATOR     = 

OBJECT_NAME    = STARLINK-35981
OBJECT_ID      = 2025-270L
CENTER_NAME    = EARTH
REF_FRAME      = TEME
TIME_SYSTEM    = UTC
MEAN_ELEMENT_THEORY = SGP/SGP4

EPOCH          = 2025-12-15T05:50:49.994016
MEAN_MOTION    = 15.50578636
ECCENTRICITY   = .00015186
INCLINATION    = 42.9990
RA_OF_ASC_NODE = 178.0473
ARG_OF_PERICENTER = 290.6463
MEAN_ANOMALY   = 69.4235

EPHEMERIS_TYPE = 0
CLASSIFICATION_TYPE = U
NORAD_CAT_ID   = 66598
ELEMENT_SET_NO = 999
REV_AT_EPOCH   = 457
BSTAR          = .1433442E-2
MEAN_MOTION_DOT = .84665E-3
MEAN_MOTION_DDOT = 0

CCSDS_OMM_VERS = 2.0
CREATION_DATE  = 
ORIGINATOR     = 

OBJECT_NAME    = STARLINK-35930
OBJECT_ID      = 2025-270M
CENTER_NAME    = EARTH
REF_FRAME      = TEME
TIME_SYSTEM    = UTC
MEAN_ELEMENT_THEORY = SGP/SGP4

EPOCH          = 2025-12-15T21:17:54.430656
MEAN_MOTION    = 15.50589612
ECCENTRICITY   = .00006501
INCLINATION    = 42.9985
RA_OF_ASC_NODE = 174.2775
ARG_OF_PERICENTER = 263.4139
MEAN_ANOMALY   = 96.6648

EPHEMERIS_TYPE = 0
CLASSIFICATION_TYPE = U
NORAD_CAT_ID   = 66599
ELEMENT_SET_NO = 999
REV_AT_EPOCH   = 483
BSTAR          = .11625815E-2
MEAN_MOTION_DOT = .68486E-3
MEAN_MOTION_DDOT = 0

CCSDS_OMM_VERS = 2.0
CREATION_DATE  = 
ORIGINATOR     = 

OBJECT_NAME    = STARLINK-35980
OBJECT_ID      = 2025-270N
CENTER_NAME    = EARTH
REF_FRAME      = TEME
TIME_SYSTEM    = UTC
MEAN_ELEMENT_THEORY = SGP/SGP4

EPOCH          = 2025-12-15T21:17:24.400608
MEAN_MOTION    = 15.50588266
ECCENTRICITY   = .00028106
INCLINATION    = 42.9988
RA_OF_ASC_NODE = 174.2745
ARG_OF_PERICENTER = 279.8877
MEAN_ANOMALY   = 80.1666

EPHEMERIS_TYPE = 0
CLASSIFICATION_TYPE = U
NORAD_CAT_ID   = 66600
ELEMENT_SET_NO = 999
REV_AT_EPOCH   = 473
BSTAR          = .11463137E-2
MEAN_MOTION_DOT = .67517E-3
MEAN_MOTION_DDOT = 0

CCSDS_OMM_VERS = 2.0
CREATION_DATE  = 
ORIGINATOR     = 

OBJECT_NAME    = STARLINK-35978
OBJECT_ID      = 2025-270P
CENTER_NAME    = EARTH
REF_FRAME      = TEME
TIME_SYSTEM    = UTC
MEAN_ELEMENT_THEORY = SGP/SGP4

EPOCH          = 2025-12-15T22:00:01.999584
MEAN_MOTION    = 15.40619116
ECCENTRICITY   = .00014239
INCLINATION    = 42.9991
RA_OF_ASC_NODE = 174.1995
ARG_OF_PERICENTER = 250.9063
MEAN_ANOMALY   = 235.2358

EPHEMERIS_TYPE = 0
CLASSIFICATION_TYPE = U
NORAD_CAT_ID   = 66601
ELEMENT_SET_NO = 999
REV_AT_EPOCH   = 475
BSTAR          = .20462453E-2
MEAN_MOTION_DOT = .8591E-3
MEAN_MOTION_DDOT = 0

